[{"OBJECT_NAME":"STARLINK-3350","OBJECT_ID":"2022-005B","EPOCH":"2025-12-29T19:55:54.744672","MEAN_MOTION":15.08836056,"ECCENTRICITY":0.0001497,"INCLINATION":53.2156,"RA_OF_ASC_NODE":242.7289,"ARG_OF_PERICENTER":85.9561,"MEAN_ANOMALY":274.1602,"EPHEMERIS_TYPE":0,"CLASSIFICATION_TYPE":"U","NORAD_CAT_ID":51105,"ELEMENT_SET_NO":999,"REV_AT_EPOCH":21833,"BSTAR":3.4971e-5,"MEAN_MOTION_DOT":2.69e-6,"MEAN_MOTION_DDOT":0},{"OBJECT_NAME":"STARLINK-3176","OBJECT_ID":"2022-005C","EPOCH":"2025-12-29T09:51:47.655072","MEAN_MOTION":15.08843586,"ECCENTRICITY":0.000148,"INCLINATION":53.2178,"RA_OF_ASC_NODE":244.6167,"ARG_OF_PERICENTER":88.0876,"MEAN_ANOMALY":272.0286,"EPHEMERIS_TYPE":0,"CLASSIFICATION_TYPE":"U","NORAD_CAT_ID":51106,"ELEMENT_SET_NO":999,"REV_AT_EPOCH":21826,"BSTAR":2.88e-5,"MEAN_MOTION_DOT":1.7e-6,"MEAN_MOTION_DDOT":0},{"OBJECT_NAME":"STARLINK-3362","OBJECT_ID":"2022-005E","EPOCH":"2025-12-29T19:50:36.395232","MEAN_MOTION":15.08840375,"ECCENTRICITY":0.000153,"INCLINATION":53.2161,"RA_OF_ASC_NODE":242.7444,"ARG_OF_PERICENTER":85.3898,"MEAN_ANOMALY":274.7269,"EPHEMERIS_TYPE":0,"CLASSIFICATION_TYPE":"U","NORAD_CAT_ID":51108,"ELEMENT_SET_NO":999,"REV_AT_EPOCH":21833,"BSTAR":2.1657e-5,"MEAN_MOTION_DOT":5.7e-7,"MEAN_MOTION_DDOT":0},{"OBJECT_NAME":"STARLINK-3358","OBJECT_ID":"2022-005F","EPOCH":"2025-12-29T01:12:28.188864","MEAN_MOTION":15.08837967,"ECCENTRICITY":0.00014322,"INCLINATION":53.2171,"RA_OF_ASC_NODE":246.1863,"ARG_OF_PERICENTER":94.474,"MEAN_ANOMALY":265.6416,"EPHEMERIS_TYPE":0,"CLASSIFICATION_TYPE":"U","NORAD_CAT_ID":51109,"ELEMENT_SET_NO":999,"REV_AT_EPOCH":21798,"BSTAR":2.6794536e-5,"MEAN_MOTION_DOT":1.38e-6,"MEAN_MOTION_DDOT":0},{"OBJECT_NAME":"STARLINK-3344","OBJECT_ID":"2022-005G","EPOCH":"2025-12-29T02:05:27.946464","MEAN_MOTION":15.08839524,"ECCENTRICITY":0.00014341,"INCLINATION":53.2153,"RA_OF_ASC_NODE":246.0485,"ARG_OF_PERICENTER":87.7634,"MEAN_ANOMALY":272.3523,"EPHEMERIS_TYPE":0,"CLASSIFICATION_TYPE":"U","NORAD_CAT_ID":51110,"ELEMENT_SET_NO":999,"REV_AT_EPOCH":21822,"BSTAR":0.00014659517,"MEAN_MOTION_DOT":2.046e-5,"MEAN_MOTION_DDOT":0},{"OBJECT_NAME":"STARLINK-3173","OBJECT_ID":"2022-005H","EPOCH":"2025-12-28T22:22:54.515424","MEAN_MOTION":15.08833378,"ECCENTRICITY":0.00012881,"INCLINATION":53.2177,"RA_OF_ASC_NODE":246.7662,"ARG_OF_PERICENTER":100.4513,"MEAN_ANOMALY":259.6624,"EPHEMERIS_TYPE":0,"CLASSIFICATION_TYPE":"U","NORAD_CAT_ID":51111,"ELEMENT_SET_NO":999,"REV_AT_EPOCH":21819,"BSTAR":-2.2283993e-5,"MEAN_MOTION_DOT":-6.42e-6,"MEAN_MOTION_DDOT":0},{"OBJECT_NAME":"STARLINK-3374","OBJECT_ID":"2022-005J","EPOCH":"2025-12-29T09:58:27.483168","MEAN_MOTION":15.08850464,"ECCENTRICITY":0.0001493,"INCLINATION":53.217,"RA_OF_ASC_NODE":244.5667,"ARG_OF_PERICENTER":89.253,"MEAN_ANOMALY":270.8633,"EPHEMERIS_TYPE":0,"CLASSIFICATION_TYPE":"U","NORAD_CAT_ID":51112,"ELEMENT_SET_NO":999,"REV_AT_EPOCH":21827,"BSTAR":0.00010413,"MEAN_MOTION_DOT":1.37e-5,"MEAN_MOTION_DDOT":0},{"OBJECT_NAME":"STARLINK-3372","OBJECT_ID":"2022-005K","EPOCH":"2025-12-28T22:38:48.472512","MEAN_MOTION":15.08826231,"ECCENTRICITY":0.00018152,"INCLINATION":53.2175,"RA_OF_ASC_NODE":246.7153,"ARG_OF_PERICENTER":82.3085,"MEAN_ANOMALY":277.8113,"EPHEMERIS_TYPE":0,"CLASSIFICATION_TYPE":"U","NORAD_CAT_ID":51113,"ELEMENT_SET_NO":999,"REV_AT_EPOCH":21819,"BSTAR":-0.00010275566,"MEAN_MOTION_DOT":-1.922e-5,"MEAN_MOTION_DDOT":0},{"OBJECT_NAME":"STARLINK-3375","OBJECT_ID":"2022-005L","EPOCH":"2025-12-29T19:45:18.571968","MEAN_MOTION":15.08839415,"ECCENTRICITY":0.000154,"INCLINATION":53.2167,"RA_OF_ASC_NODE":242.7633,"ARG_OF_PERICENTER":102.687,"MEAN_ANOMALY":257.4294,"EPHEMERIS_TYPE":0,"CLASSIFICATION_TYPE":"U","NORAD_CAT_ID":51114,"ELEMENT_SET_NO":999,"REV_AT_EPOCH":21833,"BSTAR":4.0115e-5,"MEAN_MOTION_DOT":3.5e-6,"MEAN_MOTION_DDOT":0},{"OBJECT_NAME":"STARLINK-3397","OBJECT_ID":"2022-005M","EPOCH":"2025-12-28T22:28:12.345600","MEAN_MOTION":15.08838066,"ECCENTRICITY":0.00015107,"INCLINATION":53.2177,"RA_OF_ASC_NODE":246.748,"ARG_OF_PERICENTER":85.1575,"MEAN_ANOMALY":274.959,"EPHEMERIS_TYPE":0,"CLASSIFICATION_TYPE":"U","NORAD_CAT_ID":51115,"ELEMENT_SET_NO":999,"REV_AT_EPOCH":21819,"BSTAR":2.918047e-5,"MEAN_MOTION_DOT":1.76e-6,"MEAN_MOTION_DDOT":0},{"OBJECT_NAME":"STARLINK-3243","OBJECT_ID":"2022-005N","EPOCH":"2025-12-29T09:53:10.416768","MEAN_MOTION":15.08843069,"ECCENTRICITY":0.0001552,"INCLINATION":53.2178,"RA_OF_ASC_NODE":244.5822,"ARG_OF_PERICENTER":90.9332,"MEAN_ANOMALY":269.1838,"EPHEMERIS_TYPE":0,"CLASSIFICATION_TYPE":"U","NORAD_CAT_ID":51116,"ELEMENT_SET_NO":999,"REV_AT_EPOCH":21826,"BSTAR":5.9349e-5,"MEAN_MOTION_DOT":6.57e-6,"MEAN_MOTION_DDOT":0},{"OBJECT_NAME":"STARLINK-3391","OBJECT_ID":"2022-005P","EPOCH":"2025-12-29T20:06:29.450304","MEAN_MOTION":15.08842401,"ECCENTRICITY":0.0001424,"INCLINATION":53.2159,"RA_OF_ASC_NODE":242.5842,"ARG_OF_PERICENTER":93.7738,"MEAN_ANOMALY":266.3417,"EPHEMERIS_TYPE":0,"CLASSIFICATION_TYPE":"U","NORAD_CAT_ID":51117,"ELEMENT_SET_NO":999,"REV_AT_EPOCH":21833,"BSTAR":-0.00010505,"MEAN_MOTION_DOT":-1.96e-5,"MEAN_MOTION_DDOT":0},{"OBJECT_NAME":"STARLINK-3394","OBJECT_ID":"2022-005Q","EPOCH":"2025-12-28T22:33:27.810144","MEAN_MOTION":15.08861409,"ECCENTRICITY":0.00017443,"INCLINATION":53.2181,"RA_OF_ASC_NODE":246.7327,"ARG_OF_PERICENTER":78.8952,"MEAN_ANOMALY":281.2236,"EPHEMERIS_TYPE":0,"CLASSIFICATION_TYPE":"U","NORAD_CAT_ID":51118,"ELEMENT_SET_NO":999,"REV_AT_EPOCH":21819,"BSTAR":0.00023108128,"MEAN_MOTION_DOT":3.394e-5,"MEAN_MOTION_DDOT":0},{"OBJECT_NAME":"STARLINK-3398","OBJECT_ID":"2022-005S","EPOCH":"2025-12-29T20:07:53.611680","MEAN_MOTION":15.08836153,"ECCENTRICITY":0.0001667,"INCLINATION":53.2166,"RA_OF_ASC_NODE":242.7034,"ARG_OF_PERICENTER":92.541,"MEAN_ANOMALY":267.5773,"EPHEMERIS_TYPE":0,"CLASSIFICATION_TYPE":"U","NORAD_CAT_ID":51120,"ELEMENT_SET_NO":999,"REV_AT_EPOCH":21833,"BSTAR":2.4114e-5,"MEAN_MOTION_DOT":9.6e-7,"MEAN_MOTION_DDOT":0},{"OBJECT_NAME":"STARLINK-3399","OBJECT_ID":"2022-005T","EPOCH":"2025-12-29T20:29:05.164800","MEAN_MOTION":15.08838342,"ECCENTRICITY":0.0001546,"INCLINATION":53.2176,"RA_OF_ASC_NODE":242.64,"ARG_OF_PERICENTER":89.095,"MEAN_ANOMALY":271.0219,"EPHEMERIS_TYPE":0,"CLASSIFICATION_TYPE":"U","NORAD_CAT_ID":51121,"ELEMENT_SET_NO":999,"REV_AT_EPOCH":21833,"BSTAR":6.1602e-5,"MEAN_MOTION_DOT":6.92e-6,"MEAN_MOTION_DDOT":0},{"OBJECT_NAME":"STARLINK-3392","OBJECT_ID":"2022-005V","EPOCH":"2025-12-29T20:01:12.510048","MEAN_MOTION":15.08836631,"ECCENTRICITY":0.0001487,"INCLINATION":53.2164,"RA_OF_ASC_NODE":242.7118,"ARG_OF_PERICENTER":85.2187,"MEAN_ANOMALY":274.8975,"EPHEMERIS_TYPE":0,"CLASSIFICATION_TYPE":"U","NORAD_CAT_ID":51123,"ELEMENT_SET_NO":999,"REV_AT_EPOCH":21833,"BSTAR":4.0419e-5,"MEAN_MOTION_DOT":3.55e-6,"MEAN_MOTION_DDOT":0},{"OBJECT_NAME":"STARLINK-3389","OBJECT_ID":"2022-005W","EPOCH":"2025-12-29T09:55:47.218080","MEAN_MOTION":15.08832281,"ECCENTRICITY":0.0001914,"INCLINATION":53.2185,"RA_OF_ASC_NODE":254.6076,"ARG_OF_PERICENTER":96.6403,"MEAN_ANOMALY":263.4807,"EPHEMERIS_TYPE":0,"CLASSIFICATION_TYPE":"U","NORAD_CAT_ID":51124,"ELEMENT_SET_NO":999,"REV_AT_EPOCH":21813,"BSTAR":5.4043e-5,"MEAN_MOTION_DOT":5.72e-6,"MEAN_MOTION_DDOT":0}]
