STARLINK-3350           
1 51105U 22005B   25363.83049473  .00000269  00000+0  34971-4 0  9992
2 51105  53.2156 242.7289 0001497  85.9561 274.1602 15.08836056218336
STARLINK-3176           
1 51106U 22005C   25363.41096823  .00000170  00000+0  28800-4 0  9993
2 51106  53.2178 244.6167 0001480  88.0876 272.0286 15.08843586218265
STARLINK-3362           
1 51108U 22005E   25363.82681013  .00000057  00000+0  21657-4 0  9998
2 51108  53.2161 242.7444 0001530  85.3898 274.7269 15.08840375218337
STARLINK-3358           
1 51109U 22005F   25363.05032626  .00000138  00000+0  26795-4 0  9992
2 51109  53.2171 246.1863 0001432  94.4740 265.6416 15.08837967217986
STARLINK-3344           
1 51110U 22005G   25363.08712901  .00002046  00000+0  14660-3 0  9995
2 51110  53.2153 246.0485 0001434  87.7634 272.3523 15.08839524218229
STARLINK-3173           
1 51111U 22005H   25362.93257541 -.00000642  00000+0 -22284-4 0  9997
2 51111  53.2177 246.7662 0001288 100.4513 259.6624 15.08833378218193
STARLINK-3374           
1 51112U 22005J   25363.41559587  .00001370  00000+0  10413-3 0  9994
2 51112  53.2170 244.5667 0001493  89.2530 270.8633 15.08850464218278
STARLINK-3372           
1 51113U 22005K   25362.94361658 -.00001922  00000+0 -10276-3 0  9994
2 51113  53.2175 246.7153 0001815  82.3085 277.8113 15.08826231218191
STARLINK-3375           
1 51114U 22005L   25363.82313162  .00000350  00000+0  40115-4 0  9998
2 51114  53.2167 242.7633 0001540 102.6870 257.4294 15.08839415218333
STARLINK-3397           
1 51115U 22005M   25362.93625400  .00000176  00000+0  29180-4 0  9996
2 51115  53.2177 246.7480 0001510  85.1575 274.9590 15.08838066218191
STARLINK-3243           
1 51116U 22005N   25363.41192612  .00000657  00000+0  59349-4 0  9999
2 51116  53.2178 244.5822 0001552  90.9332 269.1838 15.08843069218268
STARLINK-3391           
1 51117U 22005P   25363.83784086 -.00001960  00000+0 -10505-3 0  9998
2 51117  53.2159 242.5842 0001424  93.7738 266.3417 15.08842401218336
STARLINK-3394           
1 51118U 22005Q   25362.93990521  .00003394  00000+0  23108-3 0  9996
2 51118  53.2181 246.7327 0001744  78.8952 281.2236 15.08861409218191
STARLINK-3398           
1 51120U 22005S   25363.83881495  .00000096  00000+0  24114-4 0  9993
2 51120  53.2166 242.7034 0001667  92.5410 267.5773 15.08836153218331
STARLINK-3399           
1 51121U 22005T   25363.85353200  .00000692  00000+0  61602-4 0  9999
2 51121  53.2176 242.6400 0001546  89.0950 271.0219 15.08838342218332
STARLINK-3392           
1 51123U 22005V   25363.83417257  .00000355  00000+0  40419-4 0  9991
2 51123  53.2164 242.7118 0001487  85.2187 274.8975 15.08836631218331
STARLINK-3389           
1 51124U 22005W   25363.41374095  .00000572  00000+0  54043-4 0  9997
2 51124  53.2185 254.6076 0001914  96.6403 263.4807 15.08832281218135
